{
  "type": "FeatureCollection",
  "features": [
    {
      "type": "Feature",
      "properties": {
        "gid": 7,
        "name": "G/S"
      },
      "geometry": {
        "type": "MultiPolygon",
        "coordinates": [
          [
            [
              [
                72.82689421050671,
                19.019415136957434
              ],
              [
                72.82690563666651,
                19.01939603751301
              ],
              [
                72.82699874488195,
                19.019240389564292
              ],
              [
                72.82701221549864,
                19.01921787186446
              ],
              [
                72.82706087421417,
                19.019136527350735
              ],
              [
                72.82708103934388,
                19.019102818506866
              ],
              [
                72.8271011375025,
                19.019069219972295
              ],
              [
                72.82714676440473,
                19.018979794547363
              ],
              [
                72.82720746594079,
                19.01886082391185
              ],
              [
                72.82733654693965,
                19.01860783712251
              ],
              [
                72.82736282851518,
                19.018556327517498
              ],
              [
                72.82739180263711,
                19.01849954115727
              ],
              [
                72.82752565436716,
                19.01827562452586
              ],
              [
                72.8279814240816,
                19.0174616021994
              ],
              [
                72.82805682239106,
                19.017341031162996
              ],
              [
                72.82855494800751,
                19.01654446214291
              ],
              [
                72.82865535222373,
                19.016383902888755
              ],
              [
                72.82865541236131,
                19.01638380604414
              ],
              [
                72.82866192563446,
                19.0163722947527
              ],
              [
                72.82867475349536,
                19.016359377228998
              ],
              [
                72.82867710715912,
                19.01635700855667
              ],
              [
                72.82868555000525,
                19.016348506993104
              ],
              [
                72.82871822260515,
                19.0163155979206
              ],
              [
                72.82872578093766,
                19.016308001859652
              ],
              [
                72.82876298648013,
                19.016253948510602
              ],
              [
                72.82877864185983,
                19.016231205199897
              ],
              [
                72.8289824604466,
                19.0163192309558
              ],
              [
                72.8292822603748,
                19.01632303477839
              ],
              [
                72.82932458779524,
                19.016252270773542
              ],
              [
                72.82972706521824,
                19.015581118341082
              ],
              [
                72.82982900738166,
                19.015416952494768
              ],
              [
                72.83020360019216,
                19.014813709234403
              ],
              [
                72.83031188562654,
                19.01462762418894
              ],
              [
                72.83031540381282,
                19.014621574857095
              ],
              [
                72.83047852272382,
                19.014340625237484
              ],
              [
                72.83058663439976,
                19.014154414183327
              ],
              [
                72.83064968598289,
                19.01404581457912
              ],
              [
                72.83075443381972,
                19.013867122328495
              ],
              [
                72.83078122283526,
                19.01381514741704
              ],
              [
                72.83091201203698,
                19.013596329264303
              ],
              [
                72.83114392499614,
                19.013190537317666
              ],
              [
                72.83130179061536,
                19.012727037929718
              ],
              [
                72.83146408201803,
                19.012250541829633
              ],
              [
                72.83147602196969,
                19.01222198734551
              ],
              [
                72.83147639630856,
                19.012221092096542
              ],
              [
                72.83155358076787,
                19.01203650541473
              ],
              [
                72.83184157409282,
                19.011347778093484
              ],
              [
                72.83186209411353,
                19.01129870021263
              ],
              [
                72.83187403483736,
                19.011270144794103
              ],
              [
                72.83187565578022,
                19.011266270782
              ],
              [
                72.83188776922434,
                19.011237301963405
              ],
              [
                72.83188785130814,
                19.011237105944545
              ],
              [
                72.83190148654394,
                19.011204497662444
              ],
              [
                72.83190148748497,
                19.01120449539729
              ],
              [
                72.831901488426,
                19.01120449313212
              ],
              [
                72.83194451678526,
                19.01110159058227
              ],
              [
                72.83196457023296,
                19.01107252603881
              ],
              [
                72.83203717010015,
                19.010967298496148
              ],
              [
                72.83203925285599,
                19.010964280764384
              ],
              [
                72.83205060355732,
                19.010947829244394
              ],
              [
                72.8322141848986,
                19.010710731342336
              ],
              [
                72.83244457166496,
                19.01037680465223
              ],
              [
                72.83283439663803,
                19.009811780378673
              ],
              [
                72.83301607971728,
                19.00954769586183
              ],
              [
                72.83308904024207,
                19.009441643717516
              ],
              [
                72.83312459279388,
                19.00938996434837
              ],
              [
                72.83313873326128,
                19.009369411244876
              ],
              [
                72.83316335279247,
                19.00933362473912
              ],
              [
                72.83324867775568,
                19.009284636981942
              ],
              [
                72.8333523402901,
                19.00920785417663
              ],
              [
                72.83341454971448,
                19.009166301057792
              ],
              [
                72.83351914154154,
                19.009106324166627
              ],
              [
                72.83355434958818,
                19.0090861335586
              ],
              [
                72.83359505886968,
                19.00906278911818
              ],
              [
                72.8341508116945,
                19.008744097096905
              ],
              [
                72.83429861780957,
                19.00865603528459
              ],
              [
                72.83470827392998,
                19.008411963812733
              ],
              [
                72.83495251831316,
                19.00826644280094
              ],
              [
                72.83515556329915,
                19.00814546792308
              ],
              [
                72.83547786219007,
                19.0079406205678
              ],
              [
                72.83556330019414,
                19.00788631727181
              ],
              [
                72.83571471577504,
                19.007790079523915
              ],
              [
                72.83576971673226,
                19.007752101108277
              ],
              [
                72.83593810854444,
                19.00763582714699
              ],
              [
                72.8361671482983,
                19.00748722900946
              ],
              [
                72.83635876388415,
                19.007395083267763
              ],
              [
                72.83628995574314,
                19.007289400774415
              ],
              [
                72.83628977882364,
                19.007289129533163
              ],
              [
                72.8362209185409,
                19.007183373246594
              ],
              [
                72.83614928395603,
                19.007073474649427
              ],
              [
                72.83595221118458,
                19.006758062008277
              ],
              [
                72.83578049812967,
                19.006475864376984
              ],
              [
                72.83561294418165,
                19.006185873248324
              ],
              [
                72.83550296732848,
                19.005986330794116
              ],
              [
                72.83531409701418,
                19.00560647782231
              ],
              [
                72.83509705823231,
                19.00515038972289
              ],
              [
                72.83507461587882,
                19.005103227145728
              ],
              [
                72.8348715114062,
                19.00464908325987
              ],
              [
                72.83473792718539,
                19.004324602917407
              ],
              [
                72.83470084669129,
                19.00423453582341
              ],
              [
                72.83450463485329,
                19.003747272312275
              ],
              [
                72.83434553747465,
                19.00330869714188
              ],
              [
                72.83419625177295,
                19.00290513502349
              ],
              [
                72.83408995570542,
                19.002577567848224
              ],
              [
                72.83397861514692,
                19.00222012235137
              ],
              [
                72.83364635070876,
                19.001260285087145
              ],
              [
                72.8336055713755,
                19.001067574574115
              ],
              [
                72.83359022835994,
                19.001000000176862
              ],
              [
                72.83355800691541,
                19.00084688117806
              ],
              [
                72.83334137008971,
                18.999903800590648
              ],
              [
                72.83310457044291,
                18.99834039837669
              ],
              [
                72.83302191364795,
                18.99640193926035
              ],
              [
                72.83306844526592,
                18.99508828274218
              ],
              [
                72.8330774026987,
                18.994861708286333
              ],
              [
                72.83302684597658,
                18.992592565902203
              ],
              [
                72.83304107348668,
                18.991135024633156
              ],
              [
                72.83303057653627,
                18.989924564857006
              ],
              [
                72.83302698210889,
                18.989636374830816
              ],
              [
                72.83302681533263,
                18.98949865242002
              ],
              [
                72.8330255023299,
                18.989498564780604
              ],
              [
                72.83302297879871,
                18.989498395218295
              ],
              [
                72.83302029396692,
                18.989498216540614
              ],
              [
                72.83302028314215,
                18.989490249689425
              ],
              [
                72.8331335200023,
                18.98812183664306
              ],
              [
                72.83312155519745,
                18.988119194495866
              ],
              [
                72.83298352535283,
                18.987965868693845
              ],
              [
                72.83286411493633,
                18.98785140763968
              ],
              [
                72.83284028458124,
                18.987824520380297
              ],
              [
                72.83269940920373,
                18.987665572627
              ],
              [
                72.83262781069469,
                18.987584789398493
              ],
              [
                72.83242915971788,
                18.987360656810033
              ],
              [
                72.83231619833117,
                18.98723320450537
              ],
              [
                72.83206445309288,
                18.986951840677325
              ],
              [
                72.83182985408489,
                18.986702506438174
              ],
              [
                72.83163085144506,
                18.986470641679606
              ],
              [
                72.83146573462474,
                18.986267266050756
              ],
              [
                72.83140489254116,
                18.986186463077225
              ],
              [
                72.83133869820367,
                18.986112109836675
              ],
              [
                72.83115944184175,
                18.98590758282096
              ],
              [
                72.83077335638369,
                18.985500848972777
              ],
              [
                72.83059379766888,
                18.985300340168788
              ],
              [
                72.83015953600746,
                18.984846247293195
              ],
              [
                72.82998119034026,
                18.984661486042537
              ],
              [
                72.82976710919708,
                18.9844358315768
              ],
              [
                72.8295803027976,
                18.98424233204782
              ],
              [
                72.8293960189763,
                18.98403408379023
              ],
              [
                72.82903822196137,
                18.98364694252812
              ],
              [
                72.82887819859437,
                18.983468663945345
              ],
              [
                72.8285236593877,
                18.983082793040793
              ],
              [
                72.82840422788695,
                18.982943288436132
              ],
              [
                72.8277876591076,
                18.982253616269848
              ],
              [
                72.82745257256717,
                18.981872096290775
              ],
              [
                72.82709838818674,
                18.98147108522063
              ],
              [
                72.8270551023064,
                18.98142207581877
              ],
              [
                72.8269576871607,
                18.98145667962222
              ],
              [
                72.82688770732491,
                18.981477961527176
              ],
              [
                72.82682784818523,
                18.98148673113193
              ],
              [
                72.82675487748917,
                18.981482716801114
              ],
              [
                72.8266885451062,
                18.981478780394475
              ],
              [
                72.82663233102167,
                18.98146233167589
              ],
              [
                72.82655977123402,
                18.98142674605699
              ],
              [
                72.8264906107561,
                18.981384884200942
              ],
              [
                72.82643497150443,
                18.981324236189593
              ],
              [
                72.82639572015543,
                18.981279568069553
              ],
              [
                72.82637011293409,
                18.981206641638508
              ],
              [
                72.826360976717,
                18.981143382268456
              ],
              [
                72.82635192245627,
                18.981073807728738
              ],
              [
                72.82635537947436,
                18.9810054007677
              ],
              [
                72.82619169136935,
                18.98097244929304
              ],
              [
                72.8261855008604,
                18.98097120325663
              ],
              [
                72.82618454534789,
                18.980971010479756
              ],
              [
                72.8261180322221,
                18.98095761982344
              ],
              [
                72.82584811226889,
                18.980904453227897
              ],
              [
                72.82576024450772,
                18.98088449513643
              ],
              [
                72.82547426022788,
                18.98083151776132
              ],
              [
                72.82469885435594,
                18.980684141217928
              ],
              [
                72.82442775076608,
                18.98063366305294
              ],
              [
                72.82407792320556,
                18.980564339363024
              ],
              [
                72.82396691639651,
                18.980542341654047
              ],
              [
                72.82373618928233,
                18.980489165894472
              ],
              [
                72.8231903045653,
                18.980372112729707
              ],
              [
                72.82217606763462,
                18.98015462696892
              ],
              [
                72.82208955975997,
                18.980136551129917
              ],
              [
                72.82172093761965,
                18.980059526678385
              ],
              [
                72.821672526981,
                18.980049411360913
              ],
              [
                72.82157650490457,
                18.98002934726163
              ],
              [
                72.82140921533903,
                18.979994390568024
              ],
              [
                72.82121471703978,
                18.979953749026343
              ],
              [
                72.82054277996822,
                18.97981334002911
              ],
              [
                72.82048326917707,
                18.979800904223637
              ],
              [
                72.82032658715866,
                18.979768164331514
              ],
              [
                72.82005651300427,
                18.97971172885013
              ],
              [
                72.8200418301128,
                18.97970869983691
              ],
              [
                72.81965255250223,
                18.979628421219836
              ],
              [
                72.81952483717686,
                18.979602081809947
              ],
              [
                72.8194262387958,
                18.979583118963806
              ],
              [
                72.81937282972734,
                18.979572847532516
              ],
              [
                72.81932986170669,
                18.97956411900983
              ],
              [
                72.81926093768804,
                18.979550118591792
              ],
              [
                72.81916471211325,
                18.979530569356964
              ],
              [
                72.81907958174902,
                18.979513585973145
              ],
              [
                72.81893681432797,
                18.979485102436385
              ],
              [
                72.81874992318717,
                18.979449083264864
              ],
              [
                72.81692273884606,
                18.97909691943293
              ],
              [
                72.81656811721442,
                18.979028567873865
              ],
              [
                72.81656636341722,
                18.979028215692914
              ],
              [
                72.81588084104655,
                18.978890518732154
              ],
              [
                72.81425549414581,
                18.97856403387001
              ],
              [
                72.81395728187933,
                18.978504129595322
              ],
              [
                72.81171489495978,
                18.978061073456537
              ],
              [
                72.81166432667104,
                18.978057720725726
              ],
              [
                72.81160317080172,
                18.97805366563351
              ],
              [
                72.81146148653625,
                18.97807085211399
              ],
              [
                72.81145097452995,
                18.978077083075082
              ],
              [
                72.81138030894463,
                18.978118970285237
              ],
              [
                72.81131496520388,
                18.97815770295252
              ],
              [
                72.81126753444012,
                18.978201676651775
              ],
              [
                72.81123314387472,
                18.978186418949303
              ],
              [
                72.81116218266322,
                18.978187564962557
              ],
              [
                72.81101117356363,
                18.978208641045203
              ],
              [
                72.81097738266556,
                18.97821940990533
              ],
              [
                72.8108594021458,
                18.97825615274894
              ],
              [
                72.81074500332902,
                18.97825902318712
              ],
              [
                72.81070094617898,
                18.978259305630587
              ],
              [
                72.81060421224105,
                18.978259925769265
              ],
              [
                72.81040949939182,
                18.97826365886989
              ],
              [
                72.81037095400421,
                18.978264496644194
              ],
              [
                72.81030601860982,
                18.978265982991026
              ],
              [
                72.8101798473252,
                18.978266061590453
              ],
              [
                72.81017272689024,
                18.97826606522041
              ],
              [
                72.80991886594849,
                18.9782681199359
              ],
              [
                72.80980181169865,
                18.978270901717437
              ],
              [
                72.80974887578928,
                18.97827176353647
              ],
              [
                72.80969225426028,
                18.978272685348575
              ],
              [
                72.80960833109908,
                18.97827436413705
              ],
              [
                72.80959238497879,
                18.978280335434444
              ],
              [
                72.80959458831435,
                18.978309054976222
              ],
              [
                72.8095916603852,
                18.978330734085493
              ],
              [
                72.80957809122225,
                18.978342572094565
              ],
              [
                72.80955123033296,
                18.9783513497039
              ],
              [
                72.80949722869505,
                18.978374414147517
              ],
              [
                72.80942130849697,
                18.978418356011602
              ],
              [
                72.80937680277235,
                18.978446743588986
              ],
              [
                72.80933970196158,
                18.978478557768817
              ],
              [
                72.80931465587547,
                18.97850440432965
              ],
              [
                72.80930280501089,
                18.978525635603155
              ],
              [
                72.80930727997065,
                18.97854550391208
              ],
              [
                72.80932012633166,
                18.978588848759777
              ],
              [
                72.8093138670528,
                18.978600412539276
              ],
              [
                72.80929877540669,
                18.97860358330679
              ],
              [
                72.80928890294969,
                18.97860530474936
              ],
              [
                72.80928038188827,
                18.978639088498962
              ],
              [
                72.80928703995556,
                18.97865687844366
              ],
              [
                72.80929552067478,
                18.978702663138108
              ],
              [
                72.80929964033639,
                18.97875667082103
              ],
              [
                72.80929634136976,
                18.97879352238004
              ],
              [
                72.80929397677961,
                18.978807973902423
              ],
              [
                72.80927689503483,
                18.97881909298398
              ],
              [
                72.80925630067034,
                18.97882569913112
              ],
              [
                72.8092562996029,
                18.978825699443647
              ],
              [
                72.80925413589794,
                18.97882529194211
              ],
              [
                72.80924243663087,
                18.978823088615254
              ],
              [
                72.80918726476077,
                18.978758886700522
              ],
              [
                72.80918676524094,
                18.978758372405046
              ],
              [
                72.80911666856306,
                18.978686204153718
              ],
              [
                72.80904219672581,
                18.978605912142754
              ],
              [
                72.80899847970717,
                18.978605394669998
              ],
              [
                72.80895123434775,
                18.97857080283893
              ],
              [
                72.80888053822041,
                18.978505681444293
              ],
              [
                72.80884556167378,
                18.978444764652536
              ],
              [
                72.80878350717565,
                18.978326806341816
              ],
              [
                72.80871096750083,
                18.97825071316388
              ],
              [
                72.80852796690054,
                18.978198231905626
              ],
              [
                72.80832304315841,
                18.978206630711785
              ],
              [
                72.8080075294307,
                18.978260627203184
              ],
              [
                72.80777554123267,
                18.97830839682679
              ],
              [
                72.80738660481549,
                18.978466162676643
              ],
              [
                72.80705829786511,
                18.978628255469886
              ],
              [
                72.80655403358463,
                18.97890372646246
              ],
              [
                72.80616999297138,
                18.97909866468177
              ],
              [
                72.80582563716395,
                18.97928866279128
              ],
              [
                72.80651798458076,
                18.98041872087533
              ],
              [
                72.80712331497182,
                18.981433481872344
              ],
              [
                72.8078086006294,
                18.982616655666757
              ],
              [
                72.80838456957908,
                18.98361419858871
              ],
              [
                72.80857790978972,
                18.98394904957301
              ],
              [
                72.80897096008381,
                18.984636908931396
              ],
              [
                72.80941318928113,
                18.985462954271163
              ],
              [
                72.80958982307331,
                18.985891218917658
              ],
              [
                72.81022571572502,
                18.98754103115383
              ],
              [
                72.81052674458418,
                18.98838642340402
              ],
              [
                72.81061454879267,
                18.988633006485035
              ],
              [
                72.8110538989901,
                18.98986683574577
              ],
              [
                72.81140946247284,
                18.9911877127338
              ],
              [
                72.81185288607622,
                18.99318137663614
              ],
              [
                72.81187057024952,
                18.994572726958154
              ],
              [
                72.81183453702327,
                18.994945102015347
              ],
              [
                72.81187155902454,
                18.995901651370186
              ],
              [
                72.81186931504924,
                18.996048575598824
              ],
              [
                72.81175738359418,
                18.99642965288123
              ],
              [
                72.8116656670483,
                18.9967489833195
              ],
              [
                72.81149497942786,
                18.99734680676523
              ],
              [
                72.81145190735377,
                18.997523915953835
              ],
              [
                72.8114002307097,
                18.997707840567283
              ],
              [
                72.81126801687556,
                18.998175369383578
              ],
              [
                72.81136854309058,
                18.99820120945967
              ],
              [
                72.81137650406244,
                18.998203090077034
              ],
              [
                72.8113591863376,
                18.99827066298965
              ],
              [
                72.81135158844559,
                18.998356655999224
              ],
              [
                72.81134823937938,
                18.99843549590667
              ],
              [
                72.81134955025892,
                18.998546534766643
              ],
              [
                72.81134965715763,
                18.99856870800335
              ],
              [
                72.81135100841938,
                18.99884857027629
              ],
              [
                72.81135120344746,
                18.998920921657625
              ],
              [
                72.81135304811686,
                18.99960690614763
              ],
              [
                72.81135304925795,
                18.999607327073573
              ],
              [
                72.81132554385862,
                18.999834633870236
              ],
              [
                72.81132628792844,
                18.999877275866982
              ],
              [
                72.81133203054533,
                19.000206656320362
              ],
              [
                72.81133183384014,
                19.000242455031934
              ],
              [
                72.81133070247284,
                19.00045031637102
              ],
              [
                72.81133052198633,
                19.000690377920044
              ],
              [
                72.81133068446938,
                19.000903637907346
              ],
              [
                72.81133069885901,
                19.000921048134092
              ],
              [
                72.81132947837135,
                19.001069078329195
              ],
              [
                72.8113312661765,
                19.00114858147703
              ],
              [
                72.81134013049842,
                19.001275318699655
              ],
              [
                72.8113525449535,
                19.001375659947985
              ],
              [
                72.81137150356352,
                19.001483286552773
              ],
              [
                72.81138053333414,
                19.001517313007252
              ],
              [
                72.81139142008963,
                19.001558338108907
              ],
              [
                72.81144433968409,
                19.00171385932149
              ],
              [
                72.81151934881015,
                19.00188162532827
              ],
              [
                72.81158511324406,
                19.0020010937537
              ],
              [
                72.81166148071152,
                19.00213160337213
              ],
              [
                72.81172103578825,
                19.002238456711336
              ],
              [
                72.81199351600144,
                19.00270841175935
              ],
              [
                72.8120545284804,
                19.002813641071068
              ],
              [
                72.81239847032305,
                19.003414269320462
              ],
              [
                72.81262513662739,
                19.003812820278362
              ],
              [
                72.81277133472517,
                19.004058495065586
              ],
              [
                72.81283100782386,
                19.004158771170978
              ],
              [
                72.81312176792517,
                19.00466300246249
              ],
              [
                72.81315339487637,
                19.004715471271833
              ],
              [
                72.81317982812692,
                19.004762883694728
              ],
              [
                72.8131996816852,
                19.004801575128507
              ],
              [
                72.8132152161248,
                19.00483499109911
              ],
              [
                72.81324427008563,
                19.00489491376081
              ],
              [
                72.8132835669512,
                19.004982182309547
              ],
              [
                72.81328915762697,
                19.00499595429027
              ],
              [
                72.81331564815754,
                19.005049741584852
              ],
              [
                72.81334583886083,
                19.00511729114203
              ],
              [
                72.8134017869139,
                19.005242853728493
              ],
              [
                72.81342794426139,
                19.005312327359817
              ],
              [
                72.81348315093561,
                19.0054678806755
              ],
              [
                72.81353132134562,
                19.005624653246542
              ],
              [
                72.81357163396012,
                19.005746693390634
              ],
              [
                72.81360862901566,
                19.00586747491256
              ],
              [
                72.8136496883959,
                19.005999373777946
              ],
              [
                72.81368813803252,
                19.00612708052004
              ],
              [
                72.81372959143717,
                19.0062643682859
              ],
              [
                72.81378001022355,
                19.006432090366705
              ],
              [
                72.81383638394374,
                19.00661784120156
              ],
              [
                72.81389500941116,
                19.00681033970986
              ],
              [
                72.8139379801709,
                19.00695557770184
              ],
              [
                72.8139848870779,
                19.007109611076555
              ],
              [
                72.81398513652523,
                19.00711043327061
              ],
              [
                72.814051952928,
                19.007323184549346
              ],
              [
                72.81411847372446,
                19.00753277095744
              ],
              [
                72.81420690951802,
                19.007811629915185
              ],
              [
                72.81425892404188,
                19.00798468730074
              ],
              [
                72.81428872627544,
                19.00808383856655
              ],
              [
                72.81434192666073,
                19.008255397023408
              ],
              [
                72.8143917848785,
                19.008397205474846
              ],
              [
                72.81442613520134,
                19.008491833753716
              ],
              [
                72.81448330011546,
                19.008625706849553
              ],
              [
                72.81452580963288,
                19.008725133884727
              ],
              [
                72.81456337281382,
                19.008811029611397
              ],
              [
                72.8146271544755,
                19.008944498573477
              ],
              [
                72.81470153683574,
                19.00909097855798
              ],
              [
                72.81477339189576,
                19.00922274185774
              ],
              [
                72.81485101855625,
                19.009355329384526
              ],
              [
                72.81491965102275,
                19.00947552009081
              ],
              [
                72.81495421845462,
                19.009532127810548
              ],
              [
                72.81548028649291,
                19.010397701889737
              ],
              [
                72.81597702792179,
                19.011220402581895
              ],
              [
                72.8163162958846,
                19.011791513913042
              ],
              [
                72.8163969648459,
                19.011951788015093
              ],
              [
                72.8164512714546,
                19.0120704288984
              ],
              [
                72.81650384529937,
                19.0122212645076
              ],
              [
                72.81656469656504,
                19.01239309722588
              ],
              [
                72.81658733867273,
                19.01245703730752
              ],
              [
                72.81662611318364,
                19.01259116690487
              ],
              [
                72.8166508946661,
                19.01270101178537
              ],
              [
                72.8166881795049,
                19.01290515613289
              ],
              [
                72.81670992290474,
                19.013057489086233
              ],
              [
                72.81671936519017,
                19.0131811232753
              ],
              [
                72.81672883656333,
                19.013390597886833
              ],
              [
                72.81672973616313,
                19.013519513603484
              ],
              [
                72.81672506168677,
                19.01367901605808
              ],
              [
                72.81671785817363,
                19.01373904294731
              ],
              [
                72.81671022499346,
                19.013802665101842
              ],
              [
                72.81668734766494,
                19.01393990514672
              ],
              [
                72.81664952279743,
                19.014099684346167
              ],
              [
                72.81662223169971,
                19.01417530782065
              ],
              [
                72.81660417402244,
                19.014257841827085
              ],
              [
                72.81659142130155,
                19.014289313830663
              ],
              [
                72.81656525241242,
                19.014372806990036
              ],
              [
                72.81652949245384,
                19.014510507183566
              ],
              [
                72.81650660571017,
                19.01459776499943
              ],
              [
                72.81648944326902,
                19.01466729648348
              ],
              [
                72.81647084821161,
                19.014739557810415
              ],
              [
                72.81645511951359,
                19.014807723357578
              ],
              [
                72.81644224734468,
                19.014859531435473
              ],
              [
                72.81643323283963,
                19.01489438598971
              ],
              [
                72.81642855725747,
                19.014906632963992
              ],
              [
                72.81642607145712,
                19.014913145808034
              ],
              [
                72.8164220407305,
                19.014921245466656
              ],
              [
                72.81641800999166,
                19.014929346028254
              ],
              [
                72.81640726211616,
                19.014952367438063
              ],
              [
                72.81640015386034,
                19.01496342409129
              ],
              [
                72.81635929921397,
                19.015046772572585
              ],
              [
                72.8163263874462,
                19.015108820597984
              ],
              [
                72.81628414274186,
                19.01519854219608
              ],
              [
                72.81624677250223,
                19.01527743816342
              ],
              [
                72.8161450215819,
                19.015442434004367
              ],
              [
                72.81610898041853,
                19.01549271272302
              ],
              [
                72.81605815454314,
                19.015570788441103
              ],
              [
                72.81602264506695,
                19.01563146707849
              ],
              [
                72.81597351937064,
                19.015726450857517
              ],
              [
                72.81594652583466,
                19.015785936673343
              ],
              [
                72.81592707950766,
                19.01583297281809
              ],
              [
                72.81590721861124,
                19.01588571709322
              ],
              [
                72.81588980904597,
                19.01593698733612
              ],
              [
                72.81586707337667,
                19.016013944371885
              ],
              [
                72.81584419937475,
                19.016110281627753
              ],
              [
                72.81582805302959,
                19.016201728736373
              ],
              [
                72.81582016681273,
                19.016262433936276
              ],
              [
                72.8157057428827,
                19.0181777580723
              ],
              [
                72.81552652939885,
                19.02111446378149
              ],
              [
                72.81545565613249,
                19.022305965184966
              ],
              [
                72.81535818465856,
                19.023854106276037
              ],
              [
                72.81535107563047,
                19.0239072405215
              ],
              [
                72.81534389691112,
                19.023951540201168
              ],
              [
                72.8153323582133,
                19.02401522344857
              ],
              [
                72.81531881424661,
                19.02408155387502
              ],
              [
                72.81530763428954,
                19.024131235637576
              ],
              [
                72.81529220695028,
                19.024194085258493
              ],
              [
                72.81527881381135,
                19.024244374017126
              ],
              [
                72.81525930818681,
                19.024312033052112
              ],
              [
                72.81524935411836,
                19.02434443938285
              ],
              [
                72.81523838211001,
                19.024378722359163
              ],
              [
                72.81523183501082,
                19.024398535290494
              ],
              [
                72.81522652064346,
                19.024414280132437
              ],
              [
                72.8152224537274,
                19.024426138611588
              ],
              [
                72.8152058216615,
                19.024473041624603
              ],
              [
                72.81519241697514,
                19.02450917457376
              ],
              [
                72.81518592267328,
                19.024526183549984
              ],
              [
                72.8151744642668,
                19.024555464013524
              ],
              [
                72.81516751844094,
                19.02457279462297
              ],
              [
                72.81515970486741,
                19.024591918749298
              ],
              [
                72.81515052883562,
                19.02461391895148
              ],
              [
                72.81513491599688,
                19.024650273265134
              ],
              [
                72.81512375481053,
                19.024675488119126
              ],
              [
                72.81510840445655,
                19.02470919902533
              ],
              [
                72.81509834877168,
                19.02473070648578
              ],
              [
                72.81508627909167,
                19.02475596388186
              ],
              [
                72.81507622985539,
                19.0247765419774
              ],
              [
                72.81506648991905,
                19.024796126547926
              ],
              [
                72.81505588329425,
                19.024817060250104
              ],
              [
                72.81504680264801,
                19.02483466909101
              ],
              [
                72.81502748508046,
                19.02487122976793
              ],
              [
                72.81501979340813,
                19.024885459737927
              ],
              [
                72.81500928018673,
                19.024904624180444
              ],
              [
                72.81499694631363,
                19.024926697213203
              ],
              [
                72.81495308441521,
                19.025002030188844
              ],
              [
                72.81443098093547,
                19.025927063632142
              ],
              [
                72.81403359042453,
                19.026677569324963
              ],
              [
                72.81439491281175,
                19.026850621966904
              ],
              [
                72.81464088097077,
                19.026878646224247
              ],
              [
                72.8150507624314,
                19.026588010564964
              ],
              [
                72.81551753185128,
                19.026200473596017
              ],
              [
                72.81583000956023,
                19.025897286765254
              ],
              [
                72.81640547614674,
                19.025360125389174
              ],
              [
                72.81691361236008,
                19.02458633036715
              ],
              [
                72.8173718733254,
                19.02398536659206
              ],
              [
                72.81888531474148,
                19.022876243020892
              ],
              [
                72.8189930215474,
                19.022997980754525
              ],
              [
                72.81906077585354,
                19.02307456582861
              ],
              [
                72.81907319858686,
                19.02308667238826
              ],
              [
                72.81908634658923,
                19.023096255707397
              ],
              [
                72.81910055103806,
                19.02310391854863
              ],
              [
                72.81911454308882,
                19.02310929998835
              ],
              [
                72.81912864997777,
                19.0231128681589
              ],
              [
                72.8191390756017,
                19.023114414757387
              ],
              [
                72.81915373774213,
                19.023115097283156
              ],
              [
                72.81916848514844,
                19.023114049289198
              ],
              [
                72.81918491224832,
                19.02311077113417
              ],
              [
                72.81920035609673,
                19.023105478870697
              ],
              [
                72.81920780937286,
                19.023102059548613
              ],
              [
                72.81921837861401,
                19.023096094626332
              ],
              [
                72.81922950580811,
                19.023088128371093
              ],
              [
                72.8192395086823,
                19.023079060429385
              ],
              [
                72.81924876394072,
                19.02306840659149
              ],
              [
                72.81925502669584,
                19.02305935230464
              ],
              [
                72.8192599817393,
                19.023050513811466
              ],
              [
                72.819263236655,
                19.023043433742505
              ],
              [
                72.81926558948228,
                19.023037289627737
              ],
              [
                72.81926701420886,
                19.02303291034126
              ],
              [
                72.81926855499783,
                19.02302727871745
              ],
              [
                72.819270499426,
                19.02301735240081
              ],
              [
                72.81927150213421,
                19.023007469162156
              ],
              [
                72.81927156556776,
                19.022996859463596
              ],
              [
                72.81927114265434,
                19.022990914716193
              ],
              [
                72.8192691519889,
                19.0229783315615
              ],
              [
                72.8192636370617,
                19.02296057455178
              ],
              [
                72.81925540285921,
                19.022944293864548
              ],
              [
                72.81924261881095,
                19.02292727119208
              ],
              [
                72.81882524352855,
                19.022412374774994
              ],
              [
                72.8185785640848,
                19.02210159940634
              ],
              [
                72.81862683947547,
                19.021995147401366
              ],
              [
                72.81865310585195,
                19.021944321217415
              ],
              [
                72.81868307620891,
                19.0218058764148
              ],
              [
                72.81873516052612,
                19.02134626417111
              ],
              [
                72.8187308811125,
                19.021085661698372
              ],
              [
                72.81879275953656,
                19.020660255914738
              ],
              [
                72.81891856648983,
                19.019848429392805
              ],
              [
                72.81892692703585,
                19.019600151423063
              ],
              [
                72.8189538283453,
                19.019500631301387
              ],
              [
                72.8189906513028,
                19.019425578979227
              ],
              [
                72.81926695210548,
                19.019048970048694
              ],
              [
                72.81957563041234,
                19.018661823627756
              ],
              [
                72.8195962413361,
                19.018691900265217
              ],
              [
                72.81961929643765,
                19.018682749649063
              ],
              [
                72.81965803893745,
                19.01866314388735
              ],
              [
                72.81971384551562,
                19.018641554518425
              ],
              [
                72.81974454496716,
                19.01862968047175
              ],
              [
                72.81986092599722,
                19.018593960034615
              ],
              [
                72.82005280429537,
                19.01854115382349
              ],
              [
                72.82009325328306,
                19.018534000404124
              ],
              [
                72.82010178875205,
                19.018532490613772
              ],
              [
                72.82014075999123,
                19.018526869723136
              ],
              [
                72.82015473518524,
                19.018524853253712
              ],
              [
                72.82019870176673,
                19.018521196234236
              ],
              [
                72.82027320804582,
                19.01851499825015
              ],
              [
                72.8203707025231,
                19.018506887362086
              ],
              [
                72.82039694881459,
                19.018504703105194
              ],
              [
                72.82041689050595,
                19.018500309195122
              ],
              [
                72.82044133589021,
                19.018491303131057
              ],
              [
                72.82044326856582,
                19.018490350420823
              ],
              [
                72.82050220747183,
                19.018461299883214
              ],
              [
                72.82052404689044,
                19.018450330116412
              ],
              [
                72.82056766875483,
                19.018423291064934
              ],
              [
                72.82057482353146,
                19.018418856506138
              ],
              [
                72.82057769705108,
                19.01841654195431
              ],
              [
                72.82059097633721,
                19.01840584154094
              ],
              [
                72.82059265591937,
                19.01840448841436
              ],
              [
                72.820601989999,
                19.018396136880288
              ],
              [
                72.82060210242504,
                19.018396036139304
              ],
              [
                72.82060212165122,
                19.018396018301104
              ],
              [
                72.82063161333569,
                19.018369625487573
              ],
              [
                72.82068203088252,
                19.01831856427788
              ],
              [
                72.82072332344006,
                19.018270596540294
              ],
              [
                72.82075635739379,
                19.018230144869214
              ],
              [
                72.8207650628149,
                19.018218584797864
              ],
              [
                72.82076943287562,
                19.01821278509515
              ],
              [
                72.82078086977837,
                19.018194799011333
              ],
              [
                72.82078260972821,
                19.01819100059764
              ],
              [
                72.8207839645296,
                19.018188043985333
              ],
              [
                72.8208135421278,
                19.01813225682878
              ],
              [
                72.82082566589737,
                19.01810827765852
              ],
              [
                72.82087716352763,
                19.01800502586791
              ],
              [
                72.82088283880091,
                19.017994827378622
              ],
              [
                72.82089159979925,
                19.01796610894089
              ],
              [
                72.82090001536841,
                19.017916172731727
              ],
              [
                72.82090103114446,
                19.017910155526568
              ],
              [
                72.82090128265426,
                19.017906816472816
              ],
              [
                72.82090538022285,
                19.017852640975434
              ],
              [
                72.82090435080515,
                19.017817631636415
              ],
              [
                72.82152012765496,
                19.017715204544647
              ],
              [
                72.82209938417763,
                19.017677013513623
              ],
              [
                72.82218136929094,
                19.017659562791568
              ],
              [
                72.82225305162103,
                19.01760720282613
              ],
              [
                72.82230061764527,
                19.01758934638712
              ],
              [
                72.82273644724629,
                19.01757011261332
              ],
              [
                72.8228394376491,
                19.017591042485503
              ],
              [
                72.82301203525337,
                19.017630657563952
              ],
              [
                72.82313957741579,
                19.017660869072053
              ],
              [
                72.82329500182392,
                19.017695261316717
              ],
              [
                72.8234500621284,
                19.01772297864689
              ],
              [
                72.82358263536857,
                19.017753884109066
              ],
              [
                72.82373053712114,
                19.017787948033458
              ],
              [
                72.82389412663882,
                19.017828433541812
              ],
              [
                72.82397155661685,
                19.01785273237153
              ],
              [
                72.8240594075541,
                19.017884244403234
              ],
              [
                72.82416824202082,
                19.017925724268764
              ],
              [
                72.82432740057328,
                19.017998242490865
              ],
              [
                72.82452584009307,
                19.01810007921301
              ],
              [
                72.82471656342592,
                19.018190043806147
              ],
              [
                72.82490430757755,
                19.01828842034755
              ],
              [
                72.82511531019688,
                19.018405074980034
              ],
              [
                72.82530128770736,
                19.01851920111878
              ],
              [
                72.82554405209204,
                19.018656370724507
              ],
              [
                72.82575296688546,
                19.018773569180542
              ],
              [
                72.8259322953782,
                19.01887770875127
              ],
              [
                72.82611834862337,
                19.01898179089602
              ],
              [
                72.82615208950187,
                19.019001470476738
              ],
              [
                72.8263136802336,
                19.019097069435748
              ],
              [
                72.82647294091448,
                19.019186804049387
              ],
              [
                72.82661393691376,
                19.019270294490386
              ],
              [
                72.82689421050671,
                19.019415136957434
              ]
            ]
          ]
        ]
      }
    }
  ]
}